[{"OBJECT_NAME":"TECHNOSAT","OBJECT_ID":"2017-042E","EPOCH":"2026-03-09T21:27:07.546176","MEAN_MOTION":15.04288119,"ECCENTRICITY":0.00196291,"INCLINATION":97.4156,"RA_OF_ASC_NODE":230.4429,"ARG_OF_PERICENTER":75.0719,"MEAN_ANOMALY":285.2679,"EPHEMERIS_TYPE":0,"CLASSIFICATION_TYPE":"U","NORAD_CAT_ID":42829,"ELEMENT_SET_NO":999,"REV_AT_EPOCH":47177,"BSTAR":0.00032015047,"MEAN_MOTION_DOT":4.417e-5,"MEAN_MOTION_DDOT":0},{"OBJECT_NAME":"STARLINK-5058","OBJECT_ID":"2023-015H","EPOCH":"2026-03-09T02:32:22.301088","MEAN_MOTION":15.02731068,"ECCENTRICITY":6.189e-5,"INCLINATION":43.0045,"RA_OF_ASC_NODE":329.3796,"ARG_OF_PERICENTER":311.3387,"MEAN_ANOMALY":48.7402,"EPHEMERIS_TYPE":0,"CLASSIFICATION_TYPE":"U","NORAD_CAT_ID":55456,"ELEMENT_SET_NO":999,"REV_AT_EPOCH":17066,"BSTAR":0.0019281234,"MEAN_MOTION_DOT":0.00026074,"MEAN_MOTION_DDOT":0}]
